{"type": "FeatureCollection", "features": [ {"type": "Feature", "properties": {"norad_id": 66499, "name": "STARLINK-35816", "group": "last-30-days", "lat": 35.114504446886805, "lon": -155.12415476691834, "alt_km": 400.50620815457387, "timestamp": "2025-12-07T11:27:48.740178+00:00", "meta": {"OBJECT_NAME": "STARLINK-35816", "OBJECT_ID": "2025-263Q", "EPOCH": "2025-12-07T00:00:02.000160", "MEAN_MOTION": 15.56099271, "ECCENTRICITY": 0.00015558, "INCLINATION": 42.9999, "RA_OF_ASC_NODE": 158.6965, "ARG_OF_PERICENTER": 265.7868, "MEAN_ANOMALY": 354.7549, "EPHEMERIS_TYPE": 0, "CLASSIFICATION_TYPE": "U", "NORAD_CAT_ID": 66499, "ELEMENT_SET_NO": 999, "REV_AT_EPOCH": 471, "BSTAR": -0.031815791, "MEAN_MOTION_DOT": -0.02037431, "MEAN_MOTION_DDOT": 0}, "tle": {"line1": "1 66499U 25263Q   25341.00002315 -.02037431  00000+0 -31816-1 0  9999", "line2": "2 66499  42.9999 158.6965 0001555 265.7868 354.7549 15.56099271  4710"}}, "geometry": {"type": "Point", "coordinates": [-155.12415476691834, 35.114504446886805]}}, {"type": "Feature", "properties": {"norad_id": 66500, "name": "STARLINK-35894", "group": "last-30-days", "lat": 10.296898177212187, "lon": 167.23057722443892, "alt_km": 414.11492393237313, "timestamp": "2025-12-07T11:27:48.740188+00:00", "meta": {"OBJECT_NAME": "STARLINK-35894", "OBJECT_ID": "2025-263R", "EPOCH": "2025-12-07T00:00:02.000160", "MEAN_MOTION": 15.51364374, "ECCENTRICITY": 0.00014995, "INCLINATION": 43, "RA_OF_ASC_NODE": 158.7832, "ARG_OF_PERICENTER": 301.2639, "MEAN_ANOMALY": 284.3527, "EPHEMERIS_TYPE": 0, "CLASSIFICATION_TYPE": "U", "NORAD_CAT_ID": 66500, "ELEMENT_SET_NO": 999, "REV_AT_EPOCH": 471, "BSTAR": -0.021323532, "MEAN_MOTION_DOT": -0.01174881, "MEAN_MOTION_DDOT": 0}, "tle": {"line1": "1 66500U 25263R   25341.00002315 -.01174881  00000+0 -21324-1 0  9995", "line2": "2 66500  43.0000 158.7832 0001499 301.2639 284.3527 15.51364374  4719"}}, "geometry": {"type": "Point", "coordinates": [167.23057722443892, 10.296898177212187]}}, {"type": "Feature", "properties": {"norad_id": 66501, "name": "STARLINK-35897", "group": "last-30-days", "lat": 35.95389287353857, "lon": -153.0099432613257, "alt_km": 400.3148280362111, "timestamp": "2025-12-07T11:27:48.740198+00:00", "meta": {"OBJECT_NAME": "STARLINK-35897", "OBJECT_ID": "2025-263S", "EPOCH": "2025-12-07T00:00:02.000160", "MEAN_MOTION": 15.56105326, "ECCENTRICITY": 0.00015766, "INCLINATION": 42.9998, "RA_OF_ASC_NODE": 158.6918, "ARG_OF_PERICENTER": 272.3852, "MEAN_ANOMALY": 350.0689, "EPHEMERIS_TYPE": 0, "CLASSIFICATION_TYPE": "U", "NORAD_CAT_ID": 66501, "ELEMENT_SET_NO": 999, "REV_AT_EPOCH": 471, "BSTAR": -0.031979347, "MEAN_MOTION_DOT": -0.02047213, "MEAN_MOTION_DDOT": 0}, "tle": {"line1": "1 66501U 25263S   25341.00002315 -.02047213  00000+0 -31979-1 0  9992", "line2": "2 66501  42.9998 158.6918 0001576 272.3852 350.0689 15.56105326  4714"}}, "geometry": {"type": "Point", "coordinates": [-153.0099432613257, 35.95389287353857]}}, {"type": "Feature", "properties": {"norad_id": 66502, "name": "STARLINK-35922", "group": "last-30-days", "lat": 38.23853469317168, "lon": -146.39507361464948, "alt_km": 400.0585097418225, "timestamp": "2025-12-07T11:27:48.740208+00:00", "meta": {"OBJECT_NAME": "STARLINK-35922", "OBJECT_ID": "2025-263T", "EPOCH": "2025-12-07T00:00:02.000160", "MEAN_MOTION": 15.56102861, "ECCENTRICITY": 0.00015417, "INCLINATION": 43, "RA_OF_ASC_NODE": 158.6768, "ARG_OF_PERICENTER": 268.3512, "MEAN_ANOMALY": 359.8564, "EPHEMERIS_TYPE": 0, "CLASSIFICATION_TYPE": "U", "NORAD_CAT_ID": 66502, "ELEMENT_SET_NO": 999, "REV_AT_EPOCH": 471, "BSTAR": -0.031878396, "MEAN_MOTION_DOT": -0.02041249, "MEAN_MOTION_DDOT": 0}, "tle": {"line1": "1 66502U 25263T   25341.00002315 -.02041249  00000+0 -31878-1 0  9994", "line2": "2 66502  43.0000 158.6768 0001541 268.3512 359.8564 15.56102861  4714"}}, "geometry": {"type": "Point", "coordinates": [-146.39507361464948, 38.23853469317168]}}, {"type": "Feature", "properties": {"norad_id": 66503, "name": "STARLINK-35917", "group": "last-30-days", "lat": 39.542618370324625, "lon": -141.77397750064696, "alt_km": 399.86299035802676, "timestamp": "2025-12-07T11:27:48.740218+00:00", "meta": {"OBJECT_NAME": "STARLINK-35917", "OBJECT_ID": "2025-263U", "EPOCH": "2025-12-07T00:00:02.000160", "MEAN_MOTION": 15.56113336, "ECCENTRICITY": 0.00014791, "INCLINATION": 42.9998, "RA_OF_ASC_NODE": 158.6674, "ARG_OF_PERICENTER": 270.5215, "MEAN_ANOMALY": 1.5161, "EPHEMERIS_TYPE": 0, "CLASSIFICATION_TYPE": "U", "NORAD_CAT_ID": 66503, "ELEMENT_SET_NO": 999, "REV_AT_EPOCH": 471, "BSTAR": -0.032227093, "MEAN_MOTION_DOT": -0.02061852, "MEAN_MOTION_DDOT": 0}, "tle": {"line1": "1 66503U 25263U   25341.00002315 -.02061852  00000+0 -32227-1 0  9996", "line2": "2 66503  42.9998 158.6674 0001479 270.5215   1.5161 15.56113336  4713"}}, "geometry": {"type": "Point", "coordinates": [-141.77397750064696, 39.542618370324625]}}, {"type": "Feature", "properties": {"norad_id": 66504, "name": "STARLINK-35916", "group": "last-30-days", "lat": -11.407028644122894, "lon": 144.4471372248495, "alt_km": 444.74143194611315, "timestamp": "2025-12-07T11:27:48.740230+00:00", "meta": {"OBJECT_NAME": "STARLINK-35916", "OBJECT_ID": "2025-263V", "EPOCH": "2025-12-07T00:00:02.000160", "MEAN_MOTION": 15.40627554, "ECCENTRICITY": 0.00020047, "INCLINATION": 43.0001, "RA_OF_ASC_NODE": 159.7046, "ARG_OF_PERICENTER": 265.2086, "MEAN_ANOMALY": 305.7283, "EPHEMERIS_TYPE": 0, "CLASSIFICATION_TYPE": "U", "NORAD_CAT_ID": 66504, "ELEMENT_SET_NO": 999, "REV_AT_EPOCH": 471, "BSTAR": 0.0024664494, "MEAN_MOTION_DOT": 0.00103891, "MEAN_MOTION_DDOT": 0}, "tle": {"line1": "1 66504U 25263V   25341.00002315  .00103891  00000+0  24664-2 0  9990", "line2": "2 66504  43.0001 159.7046 0002004 265.2086 305.7283 15.40627554  4717"}}, "geometry": {"type": "Point", "coordinates": [144.4471372248495, -11.407028644122894]}}, {"type": "Feature", "properties": {"norad_id": 66505, "name": "STARLINK-34766", "group": "last-30-days", "lat": 36.755071320763435, "lon": -150.85281815668995, "alt_km": 400.4022672729743, "timestamp": "2025-12-07T11:27:48.740242+00:00", "meta": {"OBJECT_NAME": "STARLINK-34766", "OBJECT_ID": "2025-263W", "EPOCH": "2025-12-07T00:00:02.000160", "MEAN_MOTION": 15.56104767, "ECCENTRICITY": 0.0001776, "INCLINATION": 42.9998, "RA_OF_ASC_NODE": 158.6863, "ARG_OF_PERICENTER": 268.9809, "MEAN_ANOMALY": 355.3902, "EPHEMERIS_TYPE": 0, "CLASSIFICATION_TYPE": "U", "NORAD_CAT_ID": 66505, "ELEMENT_SET_NO": 999, "REV_AT_EPOCH": 471, "BSTAR": -0.031990343, "MEAN_MOTION_DOT": -0.02047936, "MEAN_MOTION_DDOT": 0}, "tle": {"line1": "1 66505U 25263W   25341.00002315 -.02047936  00000+0 -31990-1 0  9991", "line2": "2 66505  42.9998 158.6863 0001776 268.9809 355.3902 15.56104767  4716"}}, "geometry": {"type": "Point", "coordinates": [-150.85281815668995, 36.755071320763435]}}, {"type": "Feature", "properties": {"norad_id": 66506, "name": "STARLINK-34765", "group": "last-30-days", "lat": 37.516408898627894, "lon": -148.64938405248614, "alt_km": 400.28951857285483, "timestamp": "2025-12-07T11:27:48.740265+00:00", "meta": {"OBJECT_NAME": "STARLINK-34765", "OBJECT_ID": "2025-263X", "EPOCH": "2025-12-07T00:00:02.000160", "MEAN_MOTION": 15.56105374, "ECCENTRICITY": 0.00017129, "INCLINATION": 42.9998, "RA_OF_ASC_NODE": 158.6823, "ARG_OF_PERICENTER": 268.1674, "MEAN_ANOMALY": 358.1224, "EPHEMERIS_TYPE": 0, "CLASSIFICATION_TYPE": "U", "NORAD_CAT_ID": 66506, "ELEMENT_SET_NO": 999, "REV_AT_EPOCH": 471, "BSTAR": -0.032050962, "MEAN_MOTION_DOT": -0.020514, "MEAN_MOTION_DDOT": 0}, "tle": {"line1": "1 66506U 25263X   25341.00002315 -.02051400  00000+0 -32051-1 0  9992", "line2": "2 66506  42.9998 158.6823 0001712 268.1674 358.1224 15.56105374  4718"}}, "geometry": {"type": "Point", "coordinates": [-148.64938405248614, 37.516408898627894]}}, {"type": "Feature", "properties": {"norad_id": 66507, "name": "STARLINK-34767", "group": "last-30-days", "lat": 38.91496999493451, "lon": -144.10107807492182, "alt_km": 399.98367671362575, "timestamp": "2025-12-07T11:27:48.740276+00:00", "meta": {"OBJECT_NAME": "STARLINK-34767", "OBJECT_ID": "2025-263Y", "EPOCH": "2025-12-07T00:00:02.000160", "MEAN_MOTION": 15.56100213, "ECCENTRICITY": 0.00016058, "INCLINATION": 42.9999, "RA_OF_ASC_NODE": 158.6714, "ARG_OF_PERICENTER": 270.0792, "MEAN_ANOMALY": 0.0458, "EPHEMERIS_TYPE": 0, "CLASSIFICATION_TYPE": "U", "NORAD_CAT_ID": 66507, "ELEMENT_SET_NO": 999, "REV_AT_EPOCH": 471, "BSTAR": -0.031792593, "MEAN_MOTION_DOT": -0.020362, "MEAN_MOTION_DDOT": 0}, "tle": {"line1": "1 66507U 25263Y   25341.00002315 -.02036200  00000+0 -31793-1 0  9996", "line2": "2 66507  42.9999 158.6714 0001605 270.0792   0.0458 15.56100213  4712"}}, "geometry": {"type": "Point", "coordinates": [-144.10107807492182, 38.91496999493451]}}, {"type": "Feature", "properties": {"norad_id": 66508, "name": "STARLINK-35608", "group": "last-30-days", "lat": 40.65810569028343, "lon": -136.9817197949926, "alt_km": 399.9339353316409, "timestamp": "2025-12-07T11:27:48.740289+00:00", "meta": {"OBJECT_NAME": "STARLINK-35608", "OBJECT_ID": "2025-263Z", "EPOCH": "2025-12-07T00:00:02.000160", "MEAN_MOTION": 15.56104661, "ECCENTRICITY": 0.00017408, "INCLINATION": 42.9999, "RA_OF_ASC_NODE": 158.6579, "ARG_OF_PERICENTER": 266.7171, "MEAN_ANOMALY": 9.1587, "EPHEMERIS_TYPE": 0, "CLASSIFICATION_TYPE": "U", "NORAD_CAT_ID": 66508, "ELEMENT_SET_NO": 999, "REV_AT_EPOCH": 471, "BSTAR": -0.032024519, "MEAN_MOTION_DOT": -0.02049858, "MEAN_MOTION_DDOT": 0}, "tle": {"line1": "1 66508U 25263Z   25341.00002315 -.02049858  00000+0 -32025-1 0  9999", "line2": "2 66508  42.9999 158.6579 0001740 266.7171   9.1587 15.56104661  4719"}}, "geometry": {"type": "Point", "coordinates": [-136.9817197949926, 40.65810569028343]}}]}